NORAD_CAT_ID,OBJECT_NAME,OBJECT_TYPE,EPOCH,MEAN_MOTION,ECCENTRICITY,INCLINATION,RA_OF_ASC_NODE,ARG_OF_PERICENTER,MEAN_ANOMALY,BSTAR,MEAN_MOTION_DOT,MEAN_MOTION_DDOT,TLE_LINE0,TLE_LINE1,TLE_LINE2,SEMIMAJOR_AXIS,PERIOD,APOGEE,PERIGEE,DECAYED
56456.0,STARLINK-5995,PAYLOAD,2023-11-03 19:36:04,14.98329933,0.0002865,69.9996,144.9858,268.6144,91.4687,-3.1619e-05,-4.7e-06,0.0,0 STARLINK-5995,1 56456U 23064J   23307.81671393 -.00000470  00000-0 -31619-4 0  9991,2 56456  69.9996 144.9858 0002865 268.6144  91.4687 14.98329933 27259,6950.193,96.107,574.049,570.067,0.0
56456.0,STARLINK-5995,PAYLOAD,2023-11-04 14:49:40,14.983282,0.0002897,69.9993,142.9656,268.8513,91.2314,-2.6117e-06,-1.24e-06,0.0,0 STARLINK-5995,1 56456U 23064J   23308.61783462 -.00000124  00000-0 -26117-5 0  9995,2 56456  69.9993 142.9656 0002897 268.8513  91.2314 14.98328200 27012,6950.198,96.107,574.077,570.05,0.0
56456.0,STARLINK-5995,PAYLOAD,2023-11-04 19:38:05,14.98328953,0.0002903,69.9995,142.4608,269.2264,90.8562,6.6797e-06,-1.3e-07,0.0,0 STARLINK-5995,1 56456U 23064J   23308.81811407 -.00000013  00000-0  66797-5 0  9992,2 56456  69.9995 142.4608 0002903 269.2264  90.8562 14.98328953 27400,6950.196,96.107,574.079,570.043,0.0
56456.0,STARLINK-5995,PAYLOAD,2023-11-04 21:14:13,14.98329472,0.0002888,69.9994,142.2924,269.2432,90.8396,1.3475e-05,6.8e-07,0.0,0 STARLINK-5995,1 56456U 23064J   23308.88487363  .00000068  00000-0  13475-4 0  9992,2 56456  69.9994 142.2924 0002888 269.2432  90.8396 14.98329472 27050,6950.195,96.107,574.067,570.052,0.0
56456.0,STARLINK-5995,PAYLOAD,2023-11-05 14:51:41,14.98329694,0.0002915,69.9992,140.4408,269.426,90.6565,3.1501e-05,2.83e-06,0.0,0 STARLINK-5995,1 56456U 23064J   23309.61923321  .00000283  00000-0  31501-4 0  9992,2 56456  69.9992 140.4408 0002915 269.4260  90.6565 14.98329694 27161,6950.194,96.107,574.085,570.033,0.0
56456.0,STARLINK-5995,PAYLOAD,2023-11-05 19:40:05,14.98331863,0.0002961,69.9984,139.9359,269.872,90.21,4.853e-05,4.86e-06,0.0,0 STARLINK-5995,1 56456U 23064J   23309.81951137  .00000486  00000-0  48530-4 0  9995,2 56456  69.9984 139.9359 0002961 269.8720  90.2100 14.98331863 27551,6950.187,96.107,574.11,569.994,0.0
56456.0,STARLINK-5995,PAYLOAD,2023-11-05 21:16:13,14.98333103,0.0002967,69.9984,139.7676,269.2984,90.7835,6.081e-05,6.33e-06,0.0,0 STARLINK-5995,1 56456U 23064J   23309.88627013  .00000633  00000-0  60810-4 0  9994,2 56456  69.9984 139.7676 0002967 269.2984  90.7835 14.98333103 27204,6950.183,96.107,574.11,569.986,0.0
56456.0,STARLINK-5995,PAYLOAD,2023-11-06 13:17:34,14.98333837,0.0002734,69.9982,138.0843,270.3356,89.7489,5.5627e-05,5.71e-06,0.0,0 STARLINK-5995,1 56456U 23064J   23310.55386895  .00000571  00000-0  55627-4 0  9991,2 56456  69.9982 138.0843 0002734 270.3356  89.7489 14.98333837 27306,6950.181,96.107,573.946,570.146,0.0
56456.0,STARLINK-5995,PAYLOAD,2023-11-06 19:42:06,14.98335372,0.0003061,69.9987,137.411,273.5431,86.5377,4.5109e-05,4.45e-06,0.0,0 STARLINK-5995,1 56456U 23064J   23310.82090701  .00000445  00000-0  45109-4 0  9993,2 56456  69.9987 137.4110 0003061 273.5431  86.5377 14.98335372 27705,6950.176,96.107,574.169,569.914,0.0
56456.0,STARLINK-5995,PAYLOAD,2023-11-06 21:18:14,14.98335352,0.0003045,69.9987,137.2426,273.1592,86.9219,3.9147e-05,3.74e-06,0.0,0 STARLINK-5995,1 56456U 23064J   23310.88766697  .00000374  00000-0  39147-4 0  9999,2 56456  69.9987 137.2426 0003045 273.1592  86.9219 14.98335352 27357,6950.176,96.107,574.158,569.925,0.0
56456.0,STARLINK-5995,PAYLOAD,2023-11-07 11:43:27,14.98327581,0.000274,69.9993,135.7281,269.9266,90.1579,-4.3697e-05,-6.14e-06,0.0,0 STARLINK-5995,1 56456U 23064J   23311.48851367 -.00000614  00000-0 -43697-4 0  9999,2 56456  69.9993 135.7281 0002740 269.9266  90.1579 14.98327581 27809,6950.2,96.107,573.97,570.161,0.0
56456.0,STARLINK-5995,PAYLOAD,2023-11-07 13:19:35,14.98326723,0.0002768,69.9992,135.5598,271.2574,88.8268,-5.1565e-05,-7.08e-06,0.0,0 STARLINK-5995,1 56456U 23064J   23311.55527447 -.00000708  00000-0 -51565-4 0  9993,2 56456  69.9992 135.5598 0002768 271.2574  88.8268 14.98326723 27452,6950.203,96.107,573.992,570.144,0.0
56456.0,STARLINK-5995,PAYLOAD,2023-11-08 11:45:28,14.9832859,0.0003138,69.9987,133.2028,271.4113,88.6686,-8.4655e-05,-1.103e-05,0.0,0 STARLINK-5995,1 56456U 23064J   23312.48991525 -.00001103  00000-0 -84655-4 0  9994,2 56456  69.9987 133.2028 0003138 271.4113  88.6686 14.98328590 27953,6950.197,96.107,574.243,569.881,0.0
56456.0,STARLINK-5995,PAYLOAD,2023-11-08 13:21:36,14.9833154,0.0002927,69.9992,133.0349,269.3543,90.728,-5.0243e-05,-6.92e-06,0.0,0 STARLINK-5995,1 56456U 23064J   23312.55667261 -.00000692  00000-0 -50243-4 0  9997,2 56456  69.9992 133.0349 0002927 269.3543  90.7280 14.98331540 27606,6950.188,96.107,574.087,570.019,0.0
56456.0,STARLINK-5995,PAYLOAD,2023-11-08 21:22:16,14.98330318,0.0002938,69.9991,132.1932,269.5663,90.5159,-5.5242e-05,-7.52e-06,0.0,0 STARLINK-5995,1 56456U 23064J   23312.89047340 -.00000752  00000-0 -55242-4 0  9995,2 56456  69.9991 132.1932 0002938 269.5663  90.5159 14.98330318 27650,6950.192,96.107,574.099,570.015,0.0
56456.0,STARLINK-5995,PAYLOAD,2023-11-09 11:47:29,14.98328193,0.0003051,69.9989,130.6783,270.2745,89.8064,8.7755e-05,9.54e-06,0.0,0 STARLINK-5995,1 56456U 23064J   23313.49131092  .00000954  00000-0  87755-4 0  9996,2 56456  69.9989 130.6783 0003051 270.2745  89.8064 14.98328193 28106,6950.198,96.107,574.184,569.943,0.0
56456.0,STARLINK-5995,PAYLOAD,2023-11-09 13:23:37,14.98328508,0.0003102,69.9988,130.5097,270.577,89.5034,9.0158e-05,9.83e-06,0.0,0 STARLINK-5995,1 56456U 23064J   23313.55807062  .00000983  00000-0  90158-4 0  9993,2 56456  69.9988 130.5097 0003102 270.5770  89.5034 14.98328508 27754,6950.198,96.107,574.218,569.907,0.0
56456.0,STARLINK-5995,PAYLOAD,2023-11-09 21:24:17,14.98330792,0.0003036,69.999,129.6681,270.3689,89.7122,0.00010932,1.212e-05,0.0,0 STARLINK-5995,1 56456U 23064J   23313.89186873  .00001212  00000-0  10932-3 0  9997,2 56456  69.9990 129.6681 0003036 270.3689  89.7122 14.98330792 27802,6950.19,96.107,574.166,569.945,0.0
56456.0,STARLINK-5995,PAYLOAD,2023-11-10 11:49:30,14.98327699,0.0002972,69.999,128.1532,270.4568,89.625,5.1906e-06,-3.1e-07,0.0,0 STARLINK-5995,1 56456U 23064J   23314.49271406 -.00000031  00000-0  51906-5 0  9998,2 56456  69.9990 128.1532 0002972 270.4568  89.6250 14.98327699 28259,6950.2,96.107,574.131,569.999,0.0
56456.0,STARLINK-5995,PAYLOAD,2023-11-10 13:25:38,14.9832726,0.0002982,69.9991,127.9848,270.2973,89.7844,2.4365e-06,-6.4e-07,0.0,0 STARLINK-5995,1 56456U 23064J   23314.55947438 -.00000064  00000-0  24365-5 0  9995,2 56456  69.9991 127.9848 0002982 270.2973  89.7844 14.98327260 27901,6950.201,96.107,574.139,569.994,0.0
56456.0,STARLINK-5995,PAYLOAD,2023-11-10 21:26:18,14.98327038,0.0003018,69.9991,127.143,269.9288,90.1525,-1.8031e-05,-3.08e-06,0.0,0 STARLINK-5995,1 56456U 23064J   23314.89327527 -.00000308  00000-0 -18031-4 0  9997,2 56456  69.9991 127.1430 0003018 269.9288  90.1525 14.98327038 27955,6950.202,96.107,574.165,569.969,0.0
56456.0,STARLINK-5995,PAYLOAD,2023-11-11 11:51:31,14.98334362,0.0003045,69.9991,125.628,270.0626,90.0184,-9.4138e-06,-2.05e-06,0.0,0 STARLINK-5995,1 56456U 23064J   23315.49411026 -.00000205  00000-0 -94138-5 0  9991,2 56456  69.9991 125.6280 0003045 270.0626  90.0184 14.98334362 28409,6950.179,96.107,574.161,569.928,0.0
56456.0,STARLINK-5995,PAYLOAD,2023-11-11 13:27:39,14.98333779,0.0003052,69.9991,125.4597,270.0913,89.9896,-1.5156e-05,-2.74e-06,0.0,0 STARLINK-5995,1 56456U 23064J   23315.56087056 -.00000274  00000-0 -15156-4 0  9999,2 56456  69.9991 125.4597 0003052 270.0913  89.9896 14.98333779 28054,6950.181,96.107,574.167,569.925,0.0
56456.0,STARLINK-5995,PAYLOAD,2023-11-11 21:28:19,14.98333772,0.0003075,69.9991,124.6183,270.5025,89.5781,-1.2027e-05,-2.37e-06,0.0,0 STARLINK-5995,1 56456U 23064J   23315.89466962 -.00000237  00000-0 -12027-4 0  9995,2 56456  69.9991 124.6183 0003075 270.5025  89.5781 14.98333772 28108,6950.181,96.107,574.183,569.909,0.0
56456.0,STARLINK-5995,PAYLOAD,2023-11-12 11:53:31,14.983315,0.0003129,69.999,123.1035,270.3296,89.7504,6.2617e-05,6.54e-06,0.0,0 STARLINK-5995,1 56456U 23064J   23316.49550756  .00000654  00000-0  62617-4 0  9998,2 56456  69.9990 123.1035 0003129 270.3296  89.7504 14.98331500 28556,6950.188,96.107,574.228,569.879,0.0
56456.0,STARLINK-5995,PAYLOAD,2023-11-12 13:29:39,14.98331996,0.0003127,69.9991,122.9352,270.3245,89.7555,6.6259e-05,6.98e-06,0.0,0 STARLINK-5995,1 56456U 23064J   23316.56226705  .00000698  00000-0  66259-4 0  9994,2 56456  69.9991 122.9352 0003127 270.3245  89.7555 14.98331996 28205,6950.187,96.107,574.225,569.878,0.0
56456.0,STARLINK-5995,PAYLOAD,2023-11-12 21:30:19,14.98334206,0.0003138,69.9991,122.0935,270.5143,89.5656,7.39e-05,7.89e-06,0.0,0 STARLINK-5995,1 56456U 23064J   23316.89606464  .00000789  00000-0  73900-4 0  9996,2 56456  69.9991 122.0935 0003138 270.5143  89.5656 14.98334206 28256,6950.18,96.107,574.226,569.864,0.0
56456.0,STARLINK-5995,PAYLOAD,2023-11-13 11:55:32,14.98331966,0.0003068,69.9992,120.5786,270.8608,89.2199,-1.3272e-05,-2.51e-06,0.0,0 STARLINK-5995,1 56456U 23064J   23317.49690733 -.00000251  00000-0 -13272-4 0  9997,2 56456  69.9992 120.5786 0003068 270.8608  89.2199 14.98331966 28704,6950.187,96.107,574.184,569.919,0.0
56456.0,STARLINK-5995,PAYLOAD,2023-11-13 13:31:40,14.98332228,0.0003065,69.9992,120.4103,270.8848,89.196,-1.0878e-05,-2.23e-06,0.0,0 STARLINK-5995,1 56456U 23064J   23317.56366695 -.00000223  00000-0 -10878-4 0  9990,2 56456  69.9992 120.4103 0003065 270.8848  89.1960 14.98332228 28357,6950.186,96.107,574.181,569.921,0.0
56456.0,STARLINK-5995,PAYLOAD,2023-11-14 11:57:33,14.98332366,0.0002952,69.9996,118.0544,268.6936,91.3884,-3.6413e-05,-5.27e-06,0.0,0 STARLINK-5995,1 56456U 23064J   23318.49830573 -.00000527  00000-0 -36413-4 0  9994,2 56456  69.9996 118.0544 0002952 268.6936  91.3884 14.98332366 28858,6950.186,96.107,574.102,569.999,0.0
